start=new Date('2022-04-14T00:00:00.000Z').valueOf();
sats=[{"INCLINATION":"53.2114","CLASSIFICATION_TYPE":"U","MEAN_MOTION_DDOT":"0.0000000000000","SITE":"AFETR","LAUNCH_DATE":"2021-12-02","EPOCH":"2022-04-13T22:00:00.999936","CENTER_NAME":"EARTH","EPHEMERIS_TYPE":"0","BSTAR":"0.00194240000000","TLE_LINE2":"2 49732  53.2114  79.6739 0001685  46.1217  20.1223 15.08826010  3627","REF_FRAME":"TEME","ECCENTRICITY":"0.00016850","DECAY_DATE":null,"TLE_LINE1":"1 49732U 21115J   22103.91667824  .00030749  00000-0  19424-2 0  9991","OBJECT_NAME":"STARLINK-3246","MEAN_ANOMALY":"20.1223","MEAN_MOTION_DOT":"0.00030749","ELEMENT_SET_NO":"999","MEAN_MOTION":"15.08826010","MEAN_ELEMENT_THEORY":"SGP4","FILE":"3400454","PERIAPSIS":"538.622","PERIOD":"95.438","SEMIMAJOR_AXIS":"6917.923","ARG_OF_PERICENTER":"46.1217","OBJECT_ID":"2021-115J","NORAD_CAT_ID":"49732","OBJECT_TYPE":"PAYLOAD","RA_OF_ASC_NODE":"79.6739","TIME_SYSTEM":"UTC","GP_ID":"201176953","RCS_SIZE":"LARGE","APOAPSIS":"540.954","REV_AT_EPOCH":"362","COUNTRY_CODE":"US"},{"TLE_LINE1":"1 49733U 21115K   22103.91667824  .00012894  00000-0  82638-3 0  9991","OBJECT_NAME":"STARLINK-3252","MEAN_ANOMALY":"65.8937","MEAN_MOTION_DOT":"0.00012894","MEAN_MOTION":"15.08854395","MEAN_ELEMENT_THEORY":"SGP4","ELEMENT_SET_NO":"999","PERIAPSIS":"538.218","SEMIMAJOR_AXIS":"6917.836","PERIOD":"95.437","ARG_OF_PERICENTER":"40.4174","OBJECT_ID":"2021-115K","FILE":"3400454","RA_OF_ASC_NODE":"79.6747","TIME_SYSTEM":"UTC","NORAD_CAT_ID":"49733","OBJECT_TYPE":"PAYLOAD","APOAPSIS":"541.185","GP_ID":"201177204","RCS_SIZE":"LARGE","REV_AT_EPOCH":"360","COUNTRY_CODE":"US","INCLINATION":"53.2135","MEAN_MOTION_DDOT":"0.0000000000000","CLASSIFICATION_TYPE":"U","EPOCH":"2022-04-13T22:00:00.999936","SITE":"AFETR","LAUNCH_DATE":"2021-12-02","TLE_LINE2":"2 49733  53.2135  79.6747 0002145  40.4174  65.8937 15.08854395  3604","BSTAR":"0.00082638000000","CENTER_NAME":"EARTH","EPHEMERIS_TYPE":"0","DECAY_DATE":null,"ECCENTRICITY":"0.00021450","REF_FRAME":"TEME"},{"MEAN_MOTION":"15.08877028","MEAN_ELEMENT_THEORY":"SGP4","ELEMENT_SET_NO":"999","PERIOD":"95.435","PERIAPSIS":"538.203","SEMIMAJOR_AXIS":"6917.767","OBJECT_ID":"2021-115L","ARG_OF_PERICENTER":"45.3250","FILE":"3400454","TLE_LINE1":"1 49734U 21115L   22103.91667824 -.00024684  00000-0 -15365-2 0  9996","MEAN_ANOMALY":"315.9827","OBJECT_NAME":"STARLINK-3238","MEAN_MOTION_DOT":"-0.00024684","REV_AT_EPOCH":"362","COUNTRY_CODE":"US","RA_OF_ASC_NODE":"69.6511","TIME_SYSTEM":"UTC","NORAD_CAT_ID":"49734","OBJECT_TYPE":"PAYLOAD","APOAPSIS":"541.061","GP_ID":"201175952","RCS_SIZE":"LARGE","MEAN_MOTION_DDOT":"0.0000000000000","CLASSIFICATION_TYPE":"U","EPOCH":"2022-04-13T22:00:00.999936","SITE":"AFETR","LAUNCH_DATE":"2021-12-02","INCLINATION":"53.2182","BSTAR":"-0.00153650000000","TLE_LINE2":"2 49734  53.2182  69.6511 0002066  45.3250 315.9827 15.08877028  3623","CENTER_NAME":"EARTH","EPHEMERIS_TYPE":"0","ECCENTRICITY":"0.00020660","DECAY_DATE":null,"REF_FRAME":"TEME"},{"COUNTRY_CODE":"US","REV_AT_EPOCH":"360","GP_ID":"201176202","RCS_SIZE":"LARGE","APOAPSIS":"541.293","NORAD_CAT_ID":"49735","OBJECT_TYPE":"PAYLOAD","RA_OF_ASC_NODE":"79.6684","TIME_SYSTEM":"UTC","FILE":"3400454","PERIAPSIS":"538.255","PERIOD":"95.438","SEMIMAJOR_AXIS":"6917.909","ARG_OF_PERICENTER":"43.1657","OBJECT_ID":"2021-115M","ELEMENT_SET_NO":"999","MEAN_MOTION":"15.08830654","MEAN_ELEMENT_THEORY":"SGP4","OBJECT_NAME":"STARLINK-3113","MEAN_ANOMALY":"43.1854","MEAN_MOTION_DOT":"0.00029392","TLE_LINE1":"1 49735U 21115M   22103.91667824  .00029392  00000-0  18576-2 0  9993","REF_FRAME":"TEME","ECCENTRICITY":"0.00021960","DECAY_DATE":null,"CENTER_NAME":"EARTH","EPHEMERIS_TYPE":"0","TLE_LINE2":"2 49735  53.2134  79.6684 0002196  43.1657  43.1854 15.08830654  3606","BSTAR":"0.00185760000000","SITE":"AFETR","LAUNCH_DATE":"2021-12-02","EPOCH":"2022-04-13T22:00:00.999936","CLASSIFICATION_TYPE":"U","MEAN_MOTION_DDOT":"0.0000000000000","INCLINATION":"53.2134"},{"MEAN_MOTION_DOT":"0.00025191","OBJECT_NAME":"STARLINK-3148","MEAN_ANOMALY":"284.6277","TLE_LINE1":"1 49736U 21115N   22103.91667824  .00025191  00000-0  15951-2 0  9991","ARG_OF_PERICENTER":"36.6990","OBJECT_ID":"2021-115N","PERIAPSIS":"538.111","SEMIMAJOR_AXIS":"6917.876","PERIOD":"95.437","FILE":"3400454","MEAN_ELEMENT_THEORY":"SGP4","MEAN_MOTION":"15.08841340","ELEMENT_SET_NO":"999","APOAPSIS":"541.372","RCS_SIZE":"LARGE","GP_ID":"201177454","RA_OF_ASC_NODE":"69.6508","TIME_SYSTEM":"UTC","OBJECT_TYPE":"PAYLOAD","NORAD_CAT_ID":"49736","COUNTRY_CODE":"US","REV_AT_EPOCH":"360","INCLINATION":"53.2179","EPOCH":"2022-04-13T22:00:00.999936","LAUNCH_DATE":"2021-12-02","SITE":"AFETR","MEAN_MOTION_DDOT":"0.0000000000000","CLASSIFICATION_TYPE":"U","DECAY_DATE":null,"ECCENTRICITY":"0.00023570","REF_FRAME":"TEME","BSTAR":"0.00159510000000","TLE_LINE2":"2 49736  53.2179  69.6508 0002357  36.6990 284.6277 15.08841340  3601","EPHEMERIS_TYPE":"0","CENTER_NAME":"EARTH"},{"REF_FRAME":"TEME","ECCENTRICITY":"0.00022930","DECAY_DATE":null,"CENTER_NAME":"EARTH","EPHEMERIS_TYPE":"0","TLE_LINE2":"2 49737  53.2196  69.6569 0002293  43.6412 297.6858 15.08873614  3602","BSTAR":"-0.00158750000000","INCLINATION":"53.2196","SITE":"AFETR","LAUNCH_DATE":"2021-12-02","EPOCH":"2022-04-13T22:00:00.999936","CLASSIFICATION_TYPE":"U","MEAN_MOTION_DDOT":"0.0000000000000","GP_ID":"201177705","RCS_SIZE":"LARGE","APOAPSIS":"541.229","NORAD_CAT_ID":"49737","OBJECT_TYPE":"PAYLOAD","TIME_SYSTEM":"UTC","RA_OF_ASC_NODE":"69.6569","COUNTRY_CODE":"US","REV_AT_EPOCH":"360","OBJECT_NAME":"STARLINK-3225","MEAN_ANOMALY":"297.6858","MEAN_MOTION_DOT":"-0.00025489","TLE_LINE1":"1 49737U 21115P   22103.91667824 -.00025489  00000-0 -15875-2 0  9999","FILE":"3400454","PERIAPSIS":"538.056","PERIOD":"95.435","SEMIMAJOR_AXIS":"6917.778","ARG_OF_PERICENTER":"43.6412","OBJECT_ID":"2021-115P","ELEMENT_SET_NO":"999","MEAN_MOTION":"15.08873614","MEAN_ELEMENT_THEORY":"SGP4"},{"INCLINATION":"53.2183","EPOCH":"2022-04-13T22:00:00.999936","LAUNCH_DATE":"2021-12-02","SITE":"AFETR","MEAN_MOTION_DDOT":"0.0000000000000","CLASSIFICATION_TYPE":"U","DECAY_DATE":null,"ECCENTRICITY":"0.00023600","REF_FRAME":"TEME","TLE_LINE2":"2 49738  53.2183  69.6608 0002360  42.7576 258.5130 15.08851719  3600","BSTAR":"0.00151980000000","EPHEMERIS_TYPE":"0","CENTER_NAME":"EARTH","MEAN_MOTION_DOT":"0.00023991","MEAN_ANOMALY":"258.5130","OBJECT_NAME":"STARLINK-3143","TLE_LINE1":"1 49738U 21115Q   22103.91667824  .00023991  00000-0  15198-2 0  9992","ARG_OF_PERICENTER":"42.7576","OBJECT_ID":"2021-115Q","SEMIMAJOR_AXIS":"6917.845","PERIAPSIS":"538.077","PERIOD":"95.437","FILE":"3400454","MEAN_ELEMENT_THEORY":"SGP4","MEAN_MOTION":"15.08851719","ELEMENT_SET_NO":"999","APOAPSIS":"541.342","RCS_SIZE":"LARGE","GP_ID":"201176453","RA_OF_ASC_NODE":"69.6608","TIME_SYSTEM":"UTC","OBJECT_TYPE":"PAYLOAD","NORAD_CAT_ID":"49738","COUNTRY_CODE":"US","REV_AT_EPOCH":"360"},{"INCLINATION":"53.2104","MEAN_MOTION_DDOT":"0.0000000000000","CLASSIFICATION_TYPE":"U","EPOCH":"2022-04-13T22:00:00.999936","LAUNCH_DATE":"2021-12-02","SITE":"AFETR","BSTAR":"-0.00058261000000","TLE_LINE2":"2 49739  53.2104  79.6776 0002169  41.9710   4.3662 15.08860551  3600","EPHEMERIS_TYPE":"0","CENTER_NAME":"EARTH","ECCENTRICITY":"0.00021690","DECAY_DATE":null,"REF_FRAME":"TEME","TLE_LINE1":"1 49739U 21115R   22103.91667824 -.00009554  00000-0 -58261-3 0  9993","MEAN_MOTION_DOT":"-0.00009554","MEAN_ANOMALY":"4.3662","OBJECT_NAME":"STARLINK-3155","MEAN_ELEMENT_THEORY":"SGP4","MEAN_MOTION":"15.08860551","ELEMENT_SET_NO":"999","ARG_OF_PERICENTER":"41.9710","OBJECT_ID":"2021-115R","SEMIMAJOR_AXIS":"6917.818","PERIAPSIS":"538.182","PERIOD":"95.436","FILE":"3400454","TIME_SYSTEM":"UTC","RA_OF_ASC_NODE":"79.6776","OBJECT_TYPE":"PAYLOAD","NORAD_CAT_ID":"49739","APOAPSIS":"541.183","RCS_SIZE":"LARGE","GP_ID":"201176703","REV_AT_EPOCH":"360","COUNTRY_CODE":"US"},{"DECAY_DATE":null,"ECCENTRICITY":"0.00021910","REF_FRAME":"TEME","BSTAR":"0.00119070000000","TLE_LINE2":"2 49740  53.2173  69.6748 0002191  40.8490 200.4210 15.08851072  3611","EPHEMERIS_TYPE":"0","CENTER_NAME":"EARTH","INCLINATION":"53.2173","EPOCH":"2022-04-13T22:00:00.999936","LAUNCH_DATE":"2021-12-02","SITE":"AFETR","MEAN_MOTION_DDOT":"0.0000000000000","CLASSIFICATION_TYPE":"U","APOAPSIS":"541.227","RCS_SIZE":"LARGE","GP_ID":"201176954","TIME_SYSTEM":"UTC","RA_OF_ASC_NODE":"69.6748","OBJECT_TYPE":"PAYLOAD","NORAD_CAT_ID":"49740","COUNTRY_CODE":"US","REV_AT_EPOCH":"361","MEAN_MOTION_DOT":"0.00018719","OBJECT_NAME":"STARLINK-3226","MEAN_ANOMALY":"200.4210","TLE_LINE1":"1 49740U 21115S   22103.91667824  .00018719  00000-0  11907-2 0  9991","ARG_OF_PERICENTER":"40.8490","OBJECT_ID":"2021-115S","PERIOD":"95.437","PERIAPSIS":"538.196","SEMIMAJOR_AXIS":"6917.847","FILE":"3400454","MEAN_ELEMENT_THEORY":"SGP4","MEAN_MOTION":"15.08851072","ELEMENT_SET_NO":"999"},{"APOAPSIS":"541.059","RCS_SIZE":"LARGE","GP_ID":"201177205","TIME_SYSTEM":"UTC","RA_OF_ASC_NODE":"69.6761","OBJECT_TYPE":"PAYLOAD","NORAD_CAT_ID":"49741","COUNTRY_CODE":"US","REV_AT_EPOCH":"361","MEAN_MOTION_DOT":"-0.00023501","MEAN_ANOMALY":"232.9779","OBJECT_NAME":"STARLINK-3244","TLE_LINE1":"1 49741U 21115T   22103.91667824 -.00023501  00000-0 -14618-2 0  9991","OBJECT_ID":"2021-115T","ARG_OF_PERICENTER":"48.3281","PERIOD":"95.435","PERIAPSIS":"538.210","SEMIMAJOR_AXIS":"6917.770","FILE":"3400454","MEAN_ELEMENT_THEORY":"SGP4","MEAN_MOTION":"15.08876184","ELEMENT_SET_NO":"999","DECAY_DATE":null,"ECCENTRICITY":"0.00020590","REF_FRAME":"TEME","TLE_LINE2":"2 49741  53.2171  69.6761 0002059  48.3281 232.9779 15.08876184  3610","BSTAR":"-0.00146180000000","EPHEMERIS_TYPE":"0","CENTER_NAME":"EARTH","INCLINATION":"53.2171","EPOCH":"2022-04-13T22:00:00.999936","LAUNCH_DATE":"2021-12-02","SITE":"AFETR","MEAN_MOTION_DDOT":"0.0000000000000","CLASSIFICATION_TYPE":"U"}];
